              M50 Cartesian                         J2K Cartesian  
    -----------------------------------       --------------------------------
     X    =       17432108.39                 X    =         5350989.54
     Y    =       -5685600.24  feet           Y    =        -1673343.56  meter
     Z    =      -12629617.92                 Z    =        -3823605.14
     XDOT =      14789.533166                 XDOT =        4435.976572
     YDOT =      15056.822312  feet/sec       YDOT =        4639.327602  meter/sec
     ZDOT =      13656.168567                 ZDOT =        4184.123377
 
              TDR Cartesian                         TDR Cartesian  
    -----------------------------------       --------------------------------
     X    =        9338023.04                 X    =         2846229.42
     Y    =      -15869618.49  feet           Y    =        -4837059.72  meter
     Z    =      -12516718.29                 Z    =        -3815095.73
     XDOT =      19832.226859                 XDOT =        6044.862747
     YDOT =        841.847347  feet/sec       YDOT =         256.595071  meter/sec
     ZDOT =      13749.651444                 ZDOT =        4190.893760
  
  
    The mean element set is posted at the UTC for which position is
    just north of the next ascending node relative to the above
    vector time
 
 
    TWO LINE MEAN ELEMENT SET
  
    ISS
    1 25544U 98067A   16105.56164073  .00016717  00000-0  10270-3 0  9013
    2 25544  51.6445  15.3874 0001734  29.2184 330.9066 15.54196270 35089
  
  
    Satellite: ISS
    Catalog Number: 25544
    Epoch time:      16105.56164073   =   yrday.fracday
    Element set:     901
    Inclination:       51.6445  deg
    RA of node:        15.3874  deg
    Eccentricity:     .0001734     
    Arg of perigee:    29.2184  deg
    Mean anomaly:     330.9066  deg
    Mean motion:   15.54196270  rev/day
    Decay rate:    1.67170E-04  rev/day^2
    Epoch rev:            3508
    Checksum:              296
 
 
    Coasting Arc #3 (Orbit 3523)
    ---------------------------------------
 
    Vector Time (GMT): 2016/106/13:16:58.235
    Vector Time (MET): N/A
    Weight (LBS)     : 945238.6
 
              M50 Cartesian                         M50 Keplerian  
    -----------------------------------       --------------------------------
     X    =       -6269210.98                 A    =         6786718.56  meter
     Y    =         861586.03  meter          E    =           .0014483
     Z    =        2436129.97                 I    =           51.72366
     XDOT =      -2743.321927                 Wp   =           99.28355
     YDOT =      -4762.178465  meter/sec      RA   =            9.85904  deg
     ZDOT =      -5350.680235                 TA   =           53.48124
                                              MA   =           53.34795
                                              Ha   =            221.387  n.mi
                                              Hp   =            214.217
 
              M50 Cartesian                         J2K Cartesian  
    -----------------------------------       --------------------------------
     X    =      -20568277.49                 X    =        -6290213.19
     Y    =        2826725.81  feet           Y    =          791362.29  meter
     Z    =        7992552.39                 Z    =         2405624.60
     XDOT =      -9000.400022                 XDOT =       -2663.874834
     YDOT =     -15623.945096  feet/sec       YDOT =       -4792.412297  meter/sec
     ZDOT =     -17554.725180                 ZDOT =       -5363.813303
 
              TDR Cartesian                         TDR Cartesian  
    -----------------------------------       --------------------------------
     X    =      -13285568.74                 X    =        -4049441.35
     Y    =       16020051.00  feet           Y    =         4882911.54  meter
     Z    =        7859830.81                 Z    =         2395676.43
     XDOT =     -15942.849772                 XDOT =       -4859.380610
     YDOT =      -4540.592459  feet/sec       YDOT =       -1383.972581  meter/sec
     ZDOT =     -17610.843237                 ZDOT =       -5367.785018
  
  
    The mean element set is posted at the UTC for which position is
    just north of the next ascending node relative to the above
    vector time
 
 
    TWO LINE MEAN ELEMENT SET
  
    ISS
    1 25544U 98067A   16106.59042691  .00016717  00000-0  10270-3 0  9029
    2 25544  51.6445  10.2581 0001730  37.0720 323.0552 15.54190340 35240
  
  
    Satellite: ISS
    Catalog Number: 25544
    Epoch time:      16106.59042691   =   yrday.fracday
    Element set:     902
    Inclination:       51.6445  deg
    RA of node:        10.2581  deg
    Eccentricity:     .0001730     
    Arg of perigee:    37.0720  deg
    Mean anomaly:     323.0552  deg
    Mean motion:   15.54190340  rev/day
    Decay rate:    1.67170E-04  rev/day^2
    Epoch rev:            3524
    Checksum:              263
 
 
    Coasting Arc #4 (Orbit 3538)
    ---------------------------------------
 
    Vector Time (GMT): 2016/107/13:16:58.235
    Vector Time (MET): N/A
    Weight (LBS)     : 945238.6
 
              M50 Cartesian                         M50 Keplerian  
    -----------------------------------       --------------------------------
     X    =        6736333.45                 A    =         6788775.75  meter
     Y    =         -53090.96  meter          E    =           .0012111
     Z    =        -794028.68                 I    =           51.69969
     XDOT =        732.379026                 Wp   =           38.55073
     YDOT =       4780.316393  meter/sec      RA   =            4.88974  deg
     ZDOT =       5951.787975                 TA   =          312.87088
                                              MA   =          312.97253
                                              Ha   =            221.272  n.mi
                                              Hp   =            214.137
 
              M50 Cartesian                         J2K Cartesian  
    -----------------------------------       --------------------------------
     X    =       22100831.52                 X    =         6740283.52
     Y    =        -174182.96  feet           Y    =           22261.21  meter
     Z    =       -2605080.98                 Z    =         -761295.59
     XDOT =       2402.818326                 XDOT =         649.958618
     YDOT =      15683.452734  feet/sec       YDOT =        4788.046018  meter/sec
     ZDOT =      19526.863436                 ZDOT =        5955.145094
 
              TDR Cartesian                         TDR Cartesian  
    -----------------------------------       --------------------------------
     X    =       15920908.78                 X    =         4852692.99
     Y    =      -15353259.53  feet           Y    =        -4679673.50  meter
     Z    =       -2462849.21                 Z    =         -750676.44
     XDOT =      11330.639901                 XDOT =        3453.579042
     YDOT =       8647.372121  feet/sec       YDOT =        2635.719022  meter/sec
     ZDOT =      19540.499393                 ZDOT =        5955.944215
  
  
    The mean element set is posted at the UTC for which position is
    just north of the next ascending node relative to the above
    vector time
 
 
    TWO LINE MEAN ELEMENT SET
  
    ISS
    1 25544U 98067A   16107.55490367  .00016717  00000-0  10270-3 0  9034
    2 25544  51.6448   5.4489 0001707  33.5712 326.5549 15.54235932 35399
  
  
    Satellite: ISS
    Catalog Number: 25544
    Epoch time:      16107.55490367   =   yrday.fracday
    Element set:     903
    Inclination:       51.6448  deg
    RA of node:         5.4489  deg
    Eccentricity:     .0001707     
    Arg of perigee:    33.5712  deg
    Mean anomaly:     326.5549  deg
    Mean motion:   15.54235932  rev/day
    Decay rate:    1.67170E-04  rev/day^2
    Epoch rev:            3539
    Checksum:              317
 
 
    Coasting Arc #5 (Orbit 3554)
    ---------------------------------------
 
    Vector Time (GMT): 2016/108/13:16:58.235
    Vector Time (MET): N/A
    Weight (LBS)     : 945238.6
 
              M50 Cartesian                         M50 Keplerian  
    -----------------------------------       --------------------------------
     X    =       -6671507.74                 A    =         6788683.43  meter
     Y    =        -762104.59  meter          E    =           .0009441
     Z    =        -975284.87                 I    =           51.66699
     XDOT =       1392.337018                 Wp   =          131.83100
     YDOT =      -4677.002986  meter/sec      RA   =          359.92234  deg
     ZDOT =      -5912.711275                 TA   =           58.72731
                                              MA   =           58.63487
                                              Ha   =            221.251  n.mi
                                              Hp   =            214.197
 
              M50 Cartesian                         J2K Cartesian  
    -----------------------------------       --------------------------------
     X    =      -21888148.74                 X    =        -6657752.32
     Y    =       -2500343.14  feet           Y    =         -836633.01  meter
     Z    =       -3199753.51                 Z    =        -1007660.04
     XDOT =       4568.034835                 XDOT =        1473.254479
     YDOT =     -15344.497987  feet/sec       YDOT =       -4660.981078  meter/sec
     ZDOT =     -19398.659040                 ZDOT =       -5905.750635
 
